GLOBALSTAR M068         
1 32266U 07048D   25134.53685061 -.00000060  00000+0  24255-3 0  9994
2 32266  51.9904  44.8323 0001664  61.0722 110.3059 12.62823074813598
GLOBALSTAR M079         
1 37188U 10054A   25134.44744133 -.00000078  00000+0  14185-3 0  9999
2 37188  52.0035 242.4938 0000679 157.2697 278.0673 12.62274042672878
GLOBALSTAR M074         
1 37189U 10054B   25133.77205791 -.00000077  00000+0  14723-3 0  9994
2 37189  52.0015 243.8793 0000416 125.3639 358.1279 12.62274907672717
GLOBALSTAR M076         
1 37190U 10054C   25134.50144870 -.00000079  00000+0  13778-3 0  9999
2 37190  52.0025 241.8250 0000383 158.3163 282.2650 12.62262558672884
GLOBALSTAR M077         
1 37191U 10054D   25133.63586373 -.00000059  00000+0  24795-3 0  9990
2 37191  52.0058 201.3087 0000302 141.6959  22.9703 12.62268074672785
GLOBALSTAR M075         
1 37192U 10054E   25133.90198709 -.00000089  00000+0  81001-4 0  9990
2 37192  51.9952 285.9274 0000721 108.1955  66.5060 12.62264689671510
GLOBALSTAR M073         
1 37193U 10054F   25133.66276728 -.00000064  00000+0  21973-3 0  9996
2 37193  52.0047 200.4500 0000299 165.9800   0.1840 12.62271427673477
GLOBALSTAR M083         
1 37739U 11033A   25133.75636521 -.00000111  00000+0 -39684-4 0  9994
2 37739  51.9837 148.9419 0000243 124.6011  47.3157 12.62263663642505
GLOBALSTAR M088         
1 37740U 11033B   25134.20003730 -.00000101  00000+0  17188-4 0  9990
2 37740  51.9748  53.1068 0000649  70.5927  79.6590 12.62265979638393
GLOBALSTAR M091         
1 37741U 11033C   25133.88142874 -.00000084  00000+0  10777-3 0  9993
2 37741  52.0022  17.5742 0000924  94.4519 346.4622 12.62267808638857
GLOBALSTAR M085         
1 37742U 11033D   25134.04765245 -.00000095  00000+0  47207-4 0  9997
2 37742  51.9881 328.1374 0000967 107.0960  69.8433 12.62268356639877
GLOBALSTAR M081         
1 37743U 11033E   25133.90790913 -.00000089  00000+0  83792-4 0  9994
2 37743  51.9972 331.3300 0000769 110.3307  30.5474 12.62263724639892
GLOBALSTAR M089         
1 37744U 11033F   25133.68170402 -.00000104  00000+0 -86918-6 0  9999
2 37744  51.9933 286.2509 0000519 101.8049 271.8507 12.62269756640339
GLOBALSTAR M084         
1 38040U 11080A   25134.09650487 -.00000090  00000+0  77426-4 0  9998
2 38040  51.9980 152.2582 0000255 341.5856  57.0005 12.62266132618641
GLOBALSTAR M080         
1 38041U 11080B   25134.06632291 -.00000089  00000+0  84150-4 0  9999
2 38041  52.0032 153.9295 0000591  92.5855 298.8738 12.62262921618624
GLOBALSTAR M082         
1 38042U 11080C   25133.92037003 -.00000119  00000+0 -85069-4 0  9999
2 38042  52.0055 109.8293 0000615  86.8618 291.2744 12.62266198619173
GLOBALSTAR M092         
1 38043U 11080D   25134.20901083 -.00000073  00000+0  17360-3 0  9996
2 38043  52.0070 199.3277 0000280 127.4116 243.2058 12.62264325617870
GLOBALSTAR M090         
1 38044U 11080E   25134.29050645 -.00000114  00000+0 -57386-4 0  9995
2 38044  51.9868 102.5535 0000397  78.9723  62.2247 12.62270249619378
GLOBALSTAR M086         
1 38045U 11080F   25133.89381987 -.00000108  00000+0 -23617-4 0  9990
2 38045  51.9880 104.3096 0000607 247.6005 130.5401 12.62270816619334
GLOBALSTAR M097         
1 39072U 13005A   25134.39149702 -.00000092  00000+0  63917-4 0  9991
2 39072  52.0073  17.3081 0000647  95.3445 264.7496 12.62271935566628
GLOBALSTAR M093         
1 39073U 13005B   25134.12742278 -.00000081  00000+0  12857-3 0  9994
2 39073  51.9836  11.4687 0000725  94.7192 265.3757 12.62264555566582
GLOBALSTAR M094         
1 39074U 13005C   25133.88990752 -.00000103  00000+0  54076-5 0  9995
2 39074  51.9962 286.5404 0000864 133.1070 226.9869 12.62270749568044
GLOBALSTAR M096         
1 39075U 13005D   25133.74481135 -.00000096  00000+0  45149-4 0  9992
2 39075  52.0091 335.4710 0000964 112.0245 248.0724 12.62271219566940
GLOBALSTAR M078         
1 39076U 13005E   25133.79734957 -.00000066  00000+0  21222-3 0  9993
2 39076  51.9887  59.8634 0001404  89.5736 270.5291 12.62262040565576
GLOBALSTAR M095         
1 39077U 13005F   25134.45725458 -.00000100  00000+0  22846-4 0  9997
2 39077  51.9815  55.0674 0000906  99.4947 260.6022 12.62269548565875
GLOBALSTAR M087         
1 52888U 22064A   25133.61686047 -.00000070  00000+0  18832-3 0  9999
2 52888  51.9979 199.0476 0000451 136.2127 223.8775 12.62263049141006
